DS-EO                   
1 52935U 22072A   22217.15182578 -.00000761  00000+0 -11660-3 0  9990
2 52935   9.9952 175.8723 0007209  98.9987 261.1075 14.99607110  5332
OBJECT B                
1 52936U 22072B   22217.14191184  .00003658  00000+0  22818-3 0  9996
2 52936   9.9871 175.7494 0007105 103.8990 256.2052 15.00242679  5341
NEUSAR                  
1 52937U 22072C   22217.20361364 -.00017941  00000+0 -14551-2 0  9999
2 52937   9.9850 175.1344 0007673 107.3415 252.7040 15.00187821  5376
OBJECT D                
1 52938U 22072D   22216.22681713  .00005097  00000+0  27324-3 0  9994
2 52938   9.9352 179.9992 0026862 324.0935 248.4459 15.07432158  5246
OBJECT E                
1 52939U 22072E   22217.19508744  .00001759  00000+0  69082-4 0  9993
2 52939   9.9497 173.8601 0036264 104.5246 255.9375 15.03476751  5388
